[{"spaceTrack":{"CCSDS_OMM_VERS":"2.0","COMMENT":"GENERATED VIA SPACE-TRACK.ORG API","CREATION_DATE":"2020-03-09T22:46:17","ORIGINATOR":"18 SPCS","OBJECT_NAME":"STARLINK-1220","OBJECT_ID":"2020-012AK","CENTER_NAME":"EARTH","REF_FRAME":"TEME","TIME_SYSTEM":"UTC","MEAN_ELEMENT_THEORY":"SGP4","EPOCH":"2020-03-09T22:00:00.999936","MEAN_MOTION":15.75746283,"ECCENTRICITY":0.0027451,"INCLINATION":53.0024,"RA_OF_ASC_NODE":162.4808,"ARG_OF_PERICENTER":118.7601,"MEAN_ANOMALY":331.9927,"EPHEMERIS_TYPE":0,"CLASSIFICATION_TYPE":"U","NORAD_CAT_ID":45211,"ELEMENT_SET_NO":999,"REV_AT_EPOCH":370,"BSTAR":0.0041594,"MEAN_MOTION_DOT":0.00723224,"MEAN_MOTION_DDOT":0,"SEMIMAJOR_AXIS":6720.645,"PERIOD":91.385,"APOAPSIS":360.959,"PERIAPSIS":324.061,"OBJECT_TYPE":"PAYLOAD","RCS_SIZE":"LARGE","COUNTRY_CODE":"US","LAUNCH_DATE":"2020-02-17","SITE":"AFETR","DECAY_DATE":"2020-02-29","DECAYED":1,"FILE":2715913,"GP_ID":150318730,"TLE_LINE0":"0 STARLINK-1220","TLE_LINE1":"1 45211U 20012AK  20069.91667824  .00723224  00000-0  41594-2 0  9993","TLE_LINE2":"2 45211  53.0024 162.4808 0027451 118.7601 331.9927 15.75746283  3703"},"version":"v1.0","launch":"5eb87d41ffd86e000604b383","longitude":null,"latitude":null,"height_km":null,"velocity_kms":null,"id":"5eefa8646527ee0006dcef63"},{"spaceTrack":{"CCSDS_OMM_VERS":"2.0","COMMENT":"GENERATED VIA SPACE-TRACK.ORG API","CREATION_DATE":"2021-05-12T07:16:17","ORIGINATOR":"18 SPCS","OBJECT_NAME":"STARLINK-1581","OBJECT_ID":"2020-055R","CENTER_NAME":"EARTH","REF_FRAME":"TEME","TIME_SYSTEM":"UTC","MEAN_ELEMENT_THEORY":"SGP4","EPOCH":"2021-05-12T04:39:06.842880","MEAN_MOTION":15.06392164,"ECCENTRICITY":0.0001249,"INCLINATION":53.0565,"RA_OF_ASC_NODE":118.7711,"ARG_OF_PERICENTER":74.333,"MEAN_ANOMALY":285.7797,"EPHEMERIS_TYPE":0,"CLASSIFICATION_TYPE":"U","NORAD_CAT_ID":46042,"ELEMENT_SET_NO":999,"REV_AT_EPOCH":4273,"BSTAR":-0.000052246,"MEAN_MOTION_DOT":-0.00001059,"MEAN_MOTION_DDOT":0,"SEMIMAJOR_AXIS":6925.373,"PERIOD":95.593,"APOAPSIS":548.103,"PERIAPSIS":546.373,"OBJECT_TYPE":"PAYLOAD","RCS_SIZE":"LARGE","COUNTRY_CODE":"US","LAUNCH_DATE":"2020-08-07","SITE":"AFETR","DECAY_DATE":null,"DECAYED":0,"FILE":3035273,"GP_ID":177109204,"TLE_LINE0":"0 STARLINK-1581","TLE_LINE1":"1 46042U 20055R   21132.19382920 -.00001059  00000-0 -52246-4 0  9991","TLE_LINE2":"2 46042  53.0565 118.7711 0001249  74.3330 285.7797 15.06392164 42732"},"version":"v1.0","launch":"5ed9819a1f30554030d45c29","longitude":-116.70389881209401,"latitude":-53.00549146526013,"height_km":566.4709249127791,"velocity_kms":7.577281598962175,"id":"5f36cb59bd8883000627408d"},{"spaceTrack":{"CCSDS_OMM_VERS":"2.0","COMMENT":"GENERATED VIA SPACE-TRACK.ORG API","CREATION_DATE":"2021-05-12T14:46:11","ORIGINATOR":"18 SPCS","OBJECT_NAME":"STARLINK-1541","OBJECT_ID":"2020-055AB","CENTER_NAME":"EARTH","REF_FRAME":"TEME","TIME_SYSTEM":"UTC","MEAN_ELEMENT_THEORY":"SGP4","EPOCH":"2021-05-12T07:30:18.236448","MEAN_MOTION":15.06406268,"ECCENTRICITY":0.0000547,"INCLINATION":53.0552,"RA_OF_ASC_NODE":108.2435,"ARG_OF_PERICENTER":57.4407,"MEAN_ANOMALY":302.6635,"EPHEMERIS_TYPE":0,"CLASSIFICATION_TYPE":"U","NORAD_CAT_ID":46052,"ELEMENT_SET_NO":999,"REV_AT_EPOCH":4288,"BSTAR":0.000032787,"MEAN_MOTION_DOT":0.00000207,"MEAN_MOTION_DDOT":0,"SEMIMAJOR_AXIS":6925.329,"PERIOD":95.592,"APOAPSIS":547.573,"PERIAPSIS":546.816,"OBJECT_TYPE":"PAYLOAD","RCS_SIZE":"LARGE","COUNTRY_CODE":"US","LAUNCH_DATE":"2020-08-07","SITE":"AFETR","DECAY_DATE":null,"DECAYED":0,"FILE":3035531,"GP_ID":177114282,"TLE_LINE0":"0 STARLINK-1541","TLE_LINE1":"1 46052U 20055AB  21132.31271107  .00000207  00000-0  32787-4 0  9990","TLE_LINE2":"2 46052  53.0552 108.2435 0000547  57.4407 302.6635 15.06406268 42880"},"version":"v1.0","launch":"5ed9819a1f30554030d45c29","longitude":-50.264308490055605,"latitude":-8.783911105254184,"height_km":549.490972025651,"velocity_kms":7.587891653307126,"id":"5f36cb59bd88830006274091"},{"spaceTrack":{"CCSDS_OMM_VERS":"2.0","COMMENT":"GENERATED VIA SPACE-TRACK.ORG API","CREATION_DATE":"2021-05-12T14:46:11","ORIGINATOR":"18 SPCS","OBJECT_NAME":"STARLINK-1544","OBJECT_ID":"2020-055E","CENTER_NAME":"EARTH","REF_FRAME":"TEME","TIME_SYSTEM":"UTC","MEAN_ELEMENT_THEORY":"SGP4","EPOCH":"2021-05-12T10:02:55.347360","MEAN_MOTION":15.06383446,"ECCENTRICITY":0.0001259,"INCLINATION":53.0555,"RA_OF_ASC_NODE":117.7519,"ARG_OF_PERICENTER":68.2785,"MEAN_ANOMALY":291.8338,"EPHEMERIS_TYPE":0,"CLASSIFICATION_TYPE":"U","NORAD_CAT_ID":46031,"ELEMENT_SET_NO":999,"REV_AT_EPOCH":4276,"BSTAR":0.000038799,"MEAN_MOTION_DOT":0.00000296,"MEAN_MOTION_DDOT":0,"SEMIMAJOR_AXIS":6925.399,"PERIOD":95.593,"APOAPSIS":548.136,"PERIAPSIS":546.392,"OBJECT_TYPE":"PAYLOAD","RCS_SIZE":"LARGE","COUNTRY_CODE":"US","LAUNCH_DATE":"2020-08-07","SITE":"AFETR","DECAY_DATE":null,"DECAYED":0,"FILE":3035533,"GP_ID":177114309,"TLE_LINE0":"0 STARLINK-1544","TLE_LINE1":"1 46031U 20055E   21132.41869615  .00000296  00000-0  38799-4 0  9992","TLE_LINE2":"2 46031  53.0555 117.7519 0001259  68.2785 291.8338 15.06383446 42766"},"version":"v1.0","launch":"5ed9819a1f30554030d45c29","longitude":114.50822518110235,"latitude":35.207172822797496,"height_km":549.5071225664542,"velocity_kms":7.591915292092283,"id":"5f36cb59bd88830006274090"},{"spaceTrack":{"CCSDS_OMM_VERS":"2.0","COMMENT":"GENERATED VIA SPACE-TRACK.ORG API","CREATION_DATE":"2021-05-12T04:44:40","ORIGINATOR":"18 SPCS","OBJECT_NAME":"STARLINK-1530","OBJECT_ID":"2020-055Y","CENTER_NAME":"EARTH","REF_FRAME":"TEME","TIME_SYSTEM":"UTC","MEAN_ELEMENT_THEORY":"SGP4","EPOCH":"2021-05-11T10:16:27.038208","MEAN_MOTION":15.06396494,"ECCENTRICITY":0.0001385,"INCLINATION":53.0554,"RA_OF_ASC_NODE":112.2183,"ARG_OF_PERICENTER":72.2721,"MEAN_ANOMALY":287.8419,"EPHEMERIS_TYPE":0,"CLASSIFICATION_TYPE":"U","NORAD_CAT_ID":46049,"ELEMENT_SET_NO":999,"REV_AT_EPOCH":4327,"BSTAR":0.000036406,"MEAN_MOTION_DOT":0.00000261,"MEAN_MOTION_DDOT":0,"SEMIMAJOR_AXIS":6925.359,"PERIOD":95.592,"APOAPSIS":548.183,"PERIAPSIS":546.265,"OBJECT_TYPE":"PAYLOAD","RCS_SIZE":"LARGE","COUNTRY_CODE":"US","LAUNCH_DATE":"2020-08-07","SITE":"AFETR","DECAY_DATE":null,"DECAYED":0,"FILE":3035157,"GP_ID":177105586,"TLE_LINE0":"0 STARLINK-1530","TLE_LINE1":"1 46049U 20055Y   21131.42809072  .00000261  00000-0  36406-4 0  9997","TLE_LINE2":"2 46049  53.0554 112.2183 0001385  72.2721 287.8419 15.06396494 43275"},"version":"v1.0","launch":"5ed9819a1f30554030d45c29","longitude":0.28437937523071705,"latitude":17.708072039876168,"height_km":546.9462548742913,"velocity_kms":7.591591464234204,"id":"5f36cb59bd88830006274096"},{"spaceTrack":{"CCSDS_OMM_VERS":"2.0","COMMENT":"GENERATED VIA SPACE-TRACK.ORG API","CREATION_DATE":"2021-05-12T07:16:17","ORIGINATOR":"18 SPCS","OBJECT_NAME":"STARLINK-1574","OBJECT_ID":"2020-055AM","CENTER_NAME":"EARTH","REF_FRAME":"TEME","TIME_SYSTEM":"UTC","MEAN_ELEMENT_THEORY":"SGP4","EPOCH":"2021-05-12T05:44:08.646144","MEAN_MOTION":15.06398346,"ECCENTRICITY":0.0001158,"INCLINATION":53.0546,"RA_OF_ASC_NODE":108.5677,"ARG_OF_PERICENTER":62.8796,"MEAN_ANOMALY":297.2311,"EPHEMERIS_TYPE":0,"CLASSIFICATION_TYPE":"U","NORAD_CAT_ID":46062,"ELEMENT_SET_NO":999,"REV_AT_EPOCH":4284,"BSTAR":-0.00007487,"MEAN_MOTION_DOT":-0.00001396,"MEAN_MOTION_DDOT":0,"SEMIMAJOR_AXIS":6925.354,"PERIOD":95.592,"APOAPSIS":548.021,"PERIAPSIS":546.417,"OBJECT_TYPE":"PAYLOAD","RCS_SIZE":"LARGE","COUNTRY_CODE":"US","LAUNCH_DATE":"2020-08-07","SITE":"AFETR","DECAY_DATE":null,"DECAYED":0,"FILE":3035273,"GP_ID":177109191,"TLE_LINE0":"0 STARLINK-1574","TLE_LINE1":"1 46062U 20055AM  21132.23898896 -.00001396  00000-0 -74870-4 0  9993","TLE_LINE2":"2 46062  53.0546 108.5677 0001158  62.8796 297.2311 15.06398346 42848"},"version":"v1.0","launch":"5ed9819a1f30554030d45c29","longitude":-25.188276889831123,"latitude":22.92638385419463,"height_km":547.3005017983551,"velocity_kms":7.591971152956044,"id":"5f36cb59bd88830006274098"},{"spaceTrack":{"CCSDS_OMM_VERS":"2.0","COMMENT":"GENERATED VIA SPACE-TRACK.ORG API","CREATION_DATE":"2021-05-12T07:16:17","ORIGINATOR":"18 SPCS","OBJECT_NAME":"STARLINK-1577","OBJECT_ID":"2020-055AN","CENTER_NAME":"EARTH","REF_FRAME":"TEME","TIME_SYSTEM":"UTC","MEAN_ELEMENT_THEORY":"SGP4","EPOCH":"2021-05-12T05:38:52.821312","MEAN_MOTION":15.06390051,"ECCENTRICITY":0.0001602,"INCLINATION":53.0542,"RA_OF_ASC_NODE":108.5875,"ARG_OF_PERICENTER":80.7754,"MEAN_ANOMALY":279.3416,"EPHEMERIS_TYPE":0,"CLASSIFICATION_TYPE":"U","NORAD_CAT_ID":46063,"ELEMENT_SET_NO":999,"REV_AT_EPOCH":4284,"BSTAR":0.000034893,"MEAN_MOTION_DOT":0.00000238,"MEAN_MOTION_DDOT":0,"SEMIMAJOR_AXIS":6925.379,"PERIOD":95.593,"APOAPSIS":548.353,"PERIAPSIS":546.135,"OBJECT_TYPE":"PAYLOAD","RCS_SIZE":"LARGE","COUNTRY_CODE":"US","LAUNCH_DATE":"2020-08-07","SITE":"AFETR","DECAY_DATE":null,"DECAYED":0,"FILE":3035273,"GP_ID":177109196,"TLE_LINE0":"0 STARLINK-1577","TLE_LINE1":"1 46063U 20055AN  21132.23533358  .00000238  00000-0  34893-4 0  9996","TLE_LINE2":"2 46063  53.0542 108.5875 0001602  80.7754 279.3416 15.06390051 42844"},"version":"v1.0","launch":"5ed9819a1f30554030d45c29","longitude":-9.012237139327139,"latitude":37.22018787749834,"height_km":549.3303328278216,"velocity_kms":7.592531940378961,"id":"5f36cb59bd88830006274099"}]